OBJECT_NAME,OBJECT_ID,EPOCH,MEAN_MOTION,ECCENTRICITY,INCLINATION,RA_OF_ASC_NODE,ARG_OF_PERICENTER,MEAN_ANOMALY,EPHEMERIS_TYPE,CLASSIFICATION_TYPE,NORAD_CAT_ID,ELEMENT_SET_NO,REV_AT_EPOCH,BSTAR,MEAN_MOTION_DOT,MEAN_MOTION_DDOT
STARLINK-34170,2025-099D,2025-10-13T23:17:54.516768,15.27540006,.00002979,43.0015,285.1515,339.4085,20.6755,0,U,63955,999,2488,.10113912E-2,.27639E-3,0
STARLINK-34187,2025-099E,2025-10-13T16:52:03.336960,15.27619002,.000197,43.0000,286.5779,277.2339,82.8288,0,U,63956,999,2485,.11535843E-2,.31657E-3,0
STARLINK-34142,2025-099F,2025-10-13T07:21:33.632928,15.27610434,.00009156,43.0001,288.7631,241.9634,118.1125,0,U,63957,999,2479,.20266771E-2,.55984E-3,0
STARLINK-34144,2025-099G,2025-10-13T07:16:00.439104,15.27604359,.00014729,42.9986,288.7340,265.7762,94.2922,0,U,63958,999,2479,.16231416E-2,.44708E-3,0
STARLINK-34099,2025-099H,2025-10-13T16:57:34.648128,15.27649569,.0002232,43.0005,286.6061,279.4410,80.6190,0,U,63959,999,2485,.14473891E-2,.39869E-3,0
STARLINK-34107,2025-099J,2025-10-13T16:35:23.469504,15.27600361,.00024659,42.9968,286.4890,280.3703,79.6870,0,U,63960,999,2485,.12161099E-2,.33377E-3,0
STARLINK-34121,2025-099K,2025-10-13T07:01:13.757376,15.27582262,.00044826,43.0005,288.6584,108.7349,251.3989,0,U,63961,999,2479,.17174283E-2,.47314E-3,0
STARLINK-34103,2025-099L,2025-10-13T00:39:01.904832,15.27611431,.00023695,43.0001,290.1045,279.3804,80.6780,0,U,63962,999,2475,.19046586E-2,.52577E-3,0
STARLINK-33801,2025-099M,2025-10-13T06:44:33.114912,15.27595325,.00018668,43.0023,288.5716,277.1037,82.9602,0,U,63963,999,2479,.15885601E-2,.43732E-3,0
STARLINK-34135,2025-099N,2025-10-13T06:50:06.108288,15.27601509,.00022365,43.0022,288.5997,274.2953,85.7643,0,U,63964,999,2479,.16064767E-2,.44241E-3,0
STARLINK-34147,2025-099P,2025-10-13T06:38:59.996256,15.27598694,.00021594,43.0044,288.5432,270.3476,89.7128,0,U,63965,999,2479,.16498671E-2,.45446E-3,0
STARLINK-33960,2025-099Q,2025-10-13T17:32:32.931744,15.27605091,.00009365,43.0042,285.9227,277.5485,82.5260,0,U,63966,999,2486,.16432784E-2,.4527E-3,0
STARLINK-34153,2025-099R,2025-10-13T17:23:16.295424,15.27612069,.00047749,43.0022,285.8757,264.6189,95.4118,0,U,63967,999,2486,.15351505E-2,.42276E-3,0
STARLINK-33963,2025-099S,2025-10-13T17:28:51.005568,15.27594839,.00011123,43.0036,285.9031,292.0848,67.9886,0,U,63968,999,2486,.11578159E-2,.3175E-3,0
STARLINK-34112,2025-099T,2025-10-13T22:00:13.282560,15.27602767,.00011364,43.0029,284.7377,62.9679,297.1289,0,U,63969,999,2489,.14395243E-2,.39591E-3,0
STARLINK-34084,2025-099U,2025-10-13T17:12:10.688832,15.27603416,.00031165,42.9956,285.8153,267.2818,92.7677,0,U,63970,999,2486,.12183489E-2,.33443E-3,0
STARLINK-34138,2025-099V,2025-10-13T16:21:16.754688,15.27610872,.00014293,42.9963,282.9438,296.4002,63.6703,0,U,63971,999,2489,.11455674E-2,.31426E-3,0
STARLINK-34115,2025-099W,2025-10-13T23:57:17.101440,15.27578042,.0003274,43.0024,281.0260,282.2047,77.8438,0,U,63972,999,2494,.14404513E-2,.3959E-3,0
STARLINK-34028,2025-099X,2025-10-13T07:24:06.155712,15.27594346,.0000826,43.0014,285.3029,272.2149,87.8608,0,U,63973,999,2483,.12094145E-2,.33183E-3,0
STARLINK-33942,2025-099Y,2025-10-13T07:18:35.084736,15.27578815,.00010216,43.0030,285.2727,254.1631,105.9108,0,U,63974,999,2483,.18365974E-2,.50622E-3,0
STARLINK-34139,2025-099Z,2025-10-13T16:37:56.299008,15.27592613,.0001529,42.9978,283.0286,282.4692,77.5988,0,U,63975,999,2480,.12827402E-2,.35219E-3,0
STARLINK-34090,2025-099AA,2025-10-13T16:32:23.112096,15.27605976,.00020891,43.0003,282.9988,270.6417,89.4195,0,U,63976,999,2480,.1710832E-2,.47156E-3,0
STARLINK-34105,2025-099AB,2025-10-13T07:03:45.021312,15.27596466,.00014285,43.0002,285.1949,262.0099,98.0591,0,U,63977,999,2474,.14265833E-2,.39223E-3,0
STARLINK-33642,2025-099AC,2025-10-13T16:17:34.378368,15.27621422,.00016811,43.0014,282.9223,274.9699,85.0960,0,U,63978,999,2480,.14945E-2,.41145E-3,0
STARLINK-34045,2025-099AD,2025-10-13T00:30:28.071072,15.27606507,.0000636,42.9988,286.5834,248.1450,111.9334,0,U,63979,999,2470,.99283141E-3,.27181E-3,0
UNICORN-2O,2025-052BS,2025-10-13T23:08:19.593888,15.29386008,.00040445,97.4129,179.0342,116.7865,243.3789,0,U,63980,999,3245,.27185181E-2,.78132E-3,0
UNICORN-2P,2025-052BT,2025-10-13T05:58:37.820640,15.29116275,.00081779,97.4237,178.2900,61.3908,298.8154,0,U,63981,999,3234,.25396021E-2,.72379E-3,0
SCS-01 A,2025-100A,2025-10-13T22:50:05.825184,15.21271102,.0009964,97.3948,359.7195,144.8736,215.3158,0,U,63982,999,2321,.76735414E-3,.1713E-3,0
SCS-01 B,2025-100B,2025-10-13T23:09:18.646560,15.24429102,.00130903,97.3930,0.1403,93.1013,267.1723,0,U,63983,999,2322,.10515688E-2,.25852E-3,0
SCS-01 C,2025-100C,2025-10-13T22:51:29.556288,15.21268144,.00110282,97.3945,359.7119,144.0570,216.1410,0,U,63984,999,2319,.76876166E-3,.17165E-3,0
SCS-01 D,2025-100D,2025-10-13T21:19:15.408192,15.23075870,.00117077,97.3947,359.8095,90.0134,270.2445,0,U,63985,999,2319,.13423061E-2,.3173E-3,0
SCS-01 E,2025-100E,2025-10-13T21:05:25.923264,15.22011089,.00144843,97.3914,359.6013,95.0814,265.2076,0,U,63986,999,2318,.11838137E-2,.2712E-3,0
SCS-01 F,2025-100F,2025-10-13T21:20:31.379712,15.21524564,.00123047,97.3917,359.7453,96.7134,263.5502,0,U,63987,999,2319,.12522686E-2,.28268E-3,0
SCS-01 G,2025-100G,2025-10-13T21:32:34.885536,15.23361079,.00152063,97.3963,0.2712,94.4972,265.8003,0,U,63988,999,2322,.35506689E-3,.8397E-4,0
SCS-01 H,2025-100H,2025-10-13T22:39:35.478432,15.23398468,.00142179,97.3968,359.9272,97.4843,262.8009,0,U,63989,999,2320,.13200101E-2,.31528E-3,0
SCS-01 J,2025-100J,2025-10-13T22:43:41.009088,15.23228742,.00118613,97.3914,359.8141,94.9998,265.2593,0,U,63990,999,2318,.12883185E-2,.30585E-3,0
SCS-01 K,2025-100K,2025-10-13T22:49:15.360672,15.21697922,.00134935,97.3918,359.8174,106.0206,254.2518,0,U,63991,999,2319,.12450469E-2,.28259E-3,0
SCS-01 L,2025-100L,2025-10-13T22:50:32.527104,15.21694755,.00121261,97.3947,359.8733,91.1691,269.0935,0,U,63992,999,2318,.12425666E-2,.28187E-3,0
SCS-01 M,2025-100M,2025-10-13T22:45:07.880832,15.23233895,.00139122,97.3946,359.8781,106.8508,253.4256,0,U,63993,999,2319,.13227264E-2,.31435E-3,0
STARLINK-33871,2025-101A,2025-10-13T21:51:43.627104,15.27581786,.00014897,43.0013,107.2044,269.4099,90.6582,0,U,63994,999,2453,.10676412E-2,.29235E-3,0
STARLINK-34154,2025-101B,2025-10-13T21:10:59.789280,15.27608927,.00013953,43.0012,107.0026,267.0762,92.9930,0,U,63995,999,2460,.76781809E-3,.20945E-3,0
STARLINK-34158,2025-101C,2025-10-13T20:59:55.604832,15.27579334,.00014467,43.0016,106.9789,271.8076,88.2610,0,U,63996,999,2460,.22934519E-2,.63392E-3,0
STARLINK-34165,2025-101D,2025-10-13T22:17:25.011744,15.27595993,.00013563,43.0008,106.4827,261.9600,98.1098,0,U,63997,999,2461,.11942455E-2,.32763E-3,0
STARLINK-34150,2025-101E,2025-10-13T21:40:37.586784,15.27578983,.00022289,43.0027,107.1542,273.0131,87.0466,0,U,63998,999,2460,.10882649E-2,.29806E-3,0
STARLINK-34169,2025-101F,2025-10-13T22:32:13.488864,15.27578378,.00015083,43.0023,106.5584,272.4232,87.6447,0,U,63999,999,2461,.11587526E-2,.3176E-3,0
STARLINK-34152,2025-101G,2025-10-13T21:07:18.918048,15.27594582,.00015649,43.0016,106.9785,274.2329,85.8344,0,U,64000,999,2460,.9192464E-3,.25131E-3,0
STARLINK-33927,2025-101H,2025-10-13T20:30:31.507776,15.27589638,.00014908,43.0002,107.6466,271.8001,88.2680,0,U,64001,999,2459,.10800366E-2,.29586E-3,0
STARLINK-33898,2025-101J,2025-10-13T21:53:33.724896,15.27626219,.00017081,43.0008,107.2170,275.7920,84.2737,0,U,64002,999,2460,.11848959E-2,.32534E-3,0
STARLINK-33928,2025-101K,2025-10-13T22:10:01.304544,15.27571490,.00017945,43.0006,106.4420,274.4273,85.6374,0,U,64003,999,2461,.81374669E-3,.22192E-3,0
STARLINK-33758,2025-101L,2025-10-13T21:27:40.270176,15.27573142,.00019145,43.0033,107.0827,269.1936,90.8697,0,U,64004,999,2460,.46800566E-3,.12636E-3,0
STARLINK-33936,2025-101M,2025-10-13T21:03:37.219104,15.27588613,.00010947,43.0010,106.9582,264.5143,95.5584,0,U,64005,999,2460,.81369078E-3,.22202E-3,0
STARLINK-33931,2025-101N,2025-10-13T22:11:52.081440,15.27588268,.00014813,43.0007,106.4496,259.4470,100.6215,0,U,64006,999,2463,.20025683E-2,.55272E-3,0
STARLINK-33759,2025-101P,2025-10-13T20:52:29.627904,15.27572585,.00016273,43.0017,106.8924,279.4930,80.5738,0,U,64007,999,2460,-.34671186E-3,-.9788E-4,0
STARLINK-34163,2025-101Q,2025-10-13T21:35:04.540704,15.27579915,.00015665,43.0036,107.1205,272.2013,87.8659,0,U,64008,999,2460,.11615233E-2,.31839E-3,0
STARLINK-34077,2025-101R,2025-10-13T20:50:39.657120,15.27549558,.00018434,43.0016,106.8837,280.9728,79.0916,0,U,64009,999,2460,.81504063E-3,.22213E-3,0
STARLINK-34113,2025-101S,2025-10-13T21:46:10.422912,15.27583999,.00019003,43.0013,107.1750,275.0564,85.0071,0,U,64010,999,2460,.12401208E-2,.34026E-3,0
STARLINK-34193,2025-101T,2025-10-13T21:44:19.555296,15.27582068,.00021097,43.0020,107.1652,272.2165,87.8446,0,U,64011,999,2460,.11418514E-2,.31295E-3,0
STARLINK-34078,2025-101U,2025-10-13T20:46:57.894240,15.27594194,.00013488,43.0013,106.8633,269.9865,90.0832,0,U,64012,999,2460,.11754977E-2,.32241E-3,0
STARLINK-34182,2025-101V,2025-10-13T20:14:33.478656,15.27657857,.00015657,42.9992,104.0934,256.9143,103.1534,0,U,64013,999,2463,.32277064E-2,.89859E-3,0
STARLINK-34192,2025-101W,2025-10-13T21:57:15.444576,15.27626871,.00014885,43.0005,107.2294,258.5018,101.5666,0,U,64014,999,2460,.12728655E-2,.34981E-3,0
STARLINK-34093,2025-101X,2025-10-13T22:00:01.999584,15.27537427,.0001354,43.0029,106.6627,273.3466,330.7215,0,U,64015,999,592,.26325526E-2,.72803E-3,0
STARLINK-34016,2025-101Y,2025-10-13T20:48:48.951072,15.27585889,.00014173,43.0016,106.8710,262.6994,97.3697,0,U,64016,999,2460,.1317808E-2,.36186E-3,0
STARLINK-34161,2025-101Z,2025-10-13T21:01:45.877152,15.27591147,.00015423,43.0018,106.9399,271.8729,88.1946,0,U,64017,999,2460,.99597809E-3,.27256E-3,0
STARLINK-34162,2025-101AA,2025-10-13T21:20:16.110240,15.27596615,.00016445,43.0035,107.0402,273.7617,86.3047,0,U,64018,999,2460,.10568308E-2,.28949E-3,0
